FENGYUN 1C DEB          
1 31785U 99025CGL 17345.52856634  .00012778  00000-0  82907-3 0  9992
2 31785  96.5317 241.7265 0024125 214.9255 145.0394 15.07931460558680
